NORAD_CAT_ID,OBJECT_NAME,OBJECT_TYPE,EPOCH,MEAN_MOTION,ECCENTRICITY,INCLINATION,RA_OF_ASC_NODE,ARG_OF_PERICENTER,MEAN_ANOMALY,BSTAR,MEAN_MOTION_DOT,MEAN_MOTION_DDOT,TLE_LINE0,TLE_LINE1,TLE_LINE2,SEMIMAJOR_AXIS,PERIOD,APOGEE,PERIGEE,DECAYED
50167.0,STARLINK-3271,PAYLOAD,2024-04-07 14:23:12,15.0881669,0.0001535,53.2193,166.4479,108.5673,251.5486,0.00031742,4.764e-05,0.0,0 STARLINK-3271,1 50167U 21125M   24098.59945594  .00004764  00000-0  31742-3 0  9994,2 50167  53.2193 166.4479 0001535 108.5673 251.5486 15.08816690130611,6917.952,95.439,540.879,538.755,0.0
50167.0,STARLINK-3271,PAYLOAD,2024-04-08 04:41:40,15.0884258,0.0001522,53.2176,163.7715,100.0761,260.0403,4.4254e-05,4.16e-06,0.0,0 STARLINK-3271,1 50167U 21125M   24099.19560808  .00000416  00000-0  44254-4 0  9995,2 50167  53.2176 163.7715 0001522 100.0761 260.0403 15.08842580130224,6917.873,95.437,540.79,538.685,0.0
50167.0,STARLINK-3271,PAYLOAD,2024-04-08 11:03:13,15.0884312,0.0001173,53.2172,162.5839,88.4027,271.7099,3.0666e-05,2e-06,0.0,0 STARLINK-3271,1 50167U 21125M   24099.46056787  .00000200  00000-0  30666-4 0  9994,2 50167  53.2172 162.5839 0001173  88.4027 271.7099 15.08843120130748,6917.871,95.437,540.547,538.924,0.0
50167.0,STARLINK-3271,PAYLOAD,2024-04-09 10:54:00,15.08832178,0.0001256,53.2173,158.1228,86.3016,273.812,5.6267e-05,6.08e-06,0.0,0 STARLINK-3271,1 50167U 21125M   24100.45417518  .00000608  00000-0  56267-4 0  9996,2 50167  53.2173 158.1228 0001256  86.3016 273.8120 15.08832178130412,6917.904,95.438,540.638,538.9,0.0
50167.0,STARLINK-3271,PAYLOAD,2024-04-09 20:26:18,15.08842335,0.0001233,53.2174,156.3362,76.2328,283.8802,7.6742e-05,9.34e-06,0.0,0 STARLINK-3271,1 50167U 21125M   24100.85160837  .00000934  00000-0  76742-4 0  9991,2 50167  53.2174 156.3362 0001233  76.2328 283.8802 15.08842335130471,6917.873,95.437,540.591,538.885,0.0
50167.0,STARLINK-3271,PAYLOAD,2024-04-10 12:20:10,15.08838732,0.0001371,53.2186,153.3659,93.8813,266.2336,3.0594e-05,1.99e-06,0.0,0 STARLINK-3271,1 50167U 21125M   24101.51401274  .00000199  00000-0  30594-4 0  9996,2 50167  53.2186 153.3659 0001371  93.8813 266.2336 15.08838732130571,6917.884,95.438,540.698,538.801,0.0
50167.0,STARLINK-3271,PAYLOAD,2024-04-10 20:17:05,15.08843857,0.0001405,53.219,151.8791,88.8417,271.2736,7.4965e-05,9.05e-06,0.0,0 STARLINK-3271,1 50167U 21125M   24101.84520830  .00000905  00000-0  74965-4 0  9997,2 50167  53.2190 151.8791 0001405  88.8417 271.2736 15.08843857131102,6917.869,95.437,540.706,538.762,0.0
50167.0,STARLINK-3271,PAYLOAD,2024-04-11 09:00:12,15.0882694,0.0001735,53.2195,149.502,96.024,264.095,4.5596e-05,4.37e-06,0.0,0 STARLINK-3271,1 50167U 21125M   24102.37514164  .00000437  00000-0  45596-4 0  9997,2 50167  53.2195 149.5020 0001735  96.0240 264.0950 15.08826940130704,6917.92,95.438,540.986,538.585,0.0
50167.0,STARLINK-3271,PAYLOAD,2024-04-11 10:35:35,15.08831683,0.000145,53.2185,149.2029,89.5119,270.6039,2.3538e-05,8.7e-07,0.0,0 STARLINK-3271,1 50167U 21125M   24102.44137972  .00000087  00000-0  23538-4 0  9996,2 50167  53.2185 149.2029 0001450  89.5119 270.6039 15.08831683131190,6917.906,95.438,540.774,538.768,0.0
50167.0,STARLINK-3271,PAYLOAD,2024-04-12 10:26:21,15.08842278,0.0001349,53.2172,144.741,82.599,277.5156,7.2385e-05,8.64e-06,0.0,0 STARLINK-3271,1 50167U 21125M   24103.43497367  .00000864  00000-0  72385-4 0  9990,2 50167  53.2172 144.7410 0001349  82.5990 277.5156 15.08842278130868,6917.873,95.437,540.672,538.805,0.0
50167.0,STARLINK-3271,PAYLOAD,2024-04-13 08:41:45,15.0884206,0.0001389,53.2171,140.5771,80.264,279.8509,0.00011113,1.481e-05,0.0,0 STARLINK-3271,1 50167U 21125M   24104.36233346  .00001481  00000-0  11113-3 0  9995,2 50167  53.2171 140.5771 0001389  80.2640 279.8509 15.08842060131487,6917.874,95.437,540.7,538.778,0.0
50167.0,STARLINK-3271,PAYLOAD,2024-04-14 02:11:00,15.08844527,0.0001453,53.217,137.3071,78.1275,281.988,5.3092e-05,5.57e-06,0.0,0 STARLINK-3271,1 50167U 21125M   24105.09097355  .00000557  00000-0  53092-4 0  9990,2 50167  53.2170 137.3071 0001453  78.1275 281.9880 15.08844527131111,6917.867,95.437,540.737,538.726,0.0
50167.0,STARLINK-3271,PAYLOAD,2024-04-14 08:32:32,15.08841968,0.0001323,53.2164,136.1161,88.2307,271.8837,2.4817e-05,1.07e-06,0.0,0 STARLINK-3271,1 50167U 21125M   24105.35593474  .00000107  00000-0  24817-4 0  9996,2 50167  53.2164 136.1161 0001323  88.2307 271.8837 15.08841968131638,6917.874,95.437,540.655,538.824,0.0
50167.0,STARLINK-3271,PAYLOAD,2024-04-15 05:12:33,15.0884367,0.0001354,53.2166,132.2499,99.7901,260.3244,6.7561e-05,7.88e-06,0.0,0 STARLINK-3271,1 50167U 21125M   24106.21705107  .00000788  00000-0  67561-4 0  9998,2 50167  53.2166 132.2499 0001354  99.7901 260.3244 15.08843670131280,6917.869,95.437,540.671,538.797,0.0
50167.0,STARLINK-3271,PAYLOAD,2024-04-15 11:34:05,15.08845672,0.0001389,53.2167,131.0606,99.0406,261.0744,8.0726e-05,9.97e-06,0.0,0 STARLINK-3271,1 50167U 21125M   24106.48200905  .00000997  00000-0  80726-4 0  9993,2 50167  53.2167 131.0606 0001389  99.0406 261.0744 15.08845672131804,6917.863,95.437,540.689,538.767,0.0
50167.0,STARLINK-3271,PAYLOAD,2024-04-16 05:03:20,15.08838284,0.0001329,53.2162,127.7886,90.3171,269.7974,5.8184e-05,6.38e-06,0.0,0 STARLINK-3271,1 50167U 21125M   24107.21065506  .00000638  00000-0  58184-4 0  9996,2 50167  53.2162 127.7886 0001329  90.3171 269.7974 15.08838284131438,6917.886,95.438,540.67,538.831,0.0
50167.0,STARLINK-3271,PAYLOAD,2024-04-16 08:14:06,15.0883755,0.0001312,53.216,127.1936,89.784,270.3302,4.5402e-05,4.35e-06,0.0,0 STARLINK-3271,1 50167U 21125M   24107.34313569  .00000435  00000-0  45402-4 0  9999,2 50167  53.2160 127.1936 0001312  89.7840 270.3302 15.08837550131936,6917.888,95.438,540.661,538.845,0.0
50167.0,STARLINK-3271,PAYLOAD,2024-04-17 11:15:39,15.08843022,0.0001284,53.2158,122.1379,88.571,271.5429,4.7874e-05,4.74e-06,0.0,0 STARLINK-3271,1 50167U 21125M   24108.46921216  .00000474  00000-0  47874-4 0  9995,2 50167  53.2158 122.1379 0001284  88.5710 271.5429 15.08843022131620,6917.871,95.437,540.624,538.848,0.0
50167.0,STARLINK-3271,PAYLOAD,2024-04-18 04:44:55,15.08831729,0.0001231,53.2149,118.8664,89.6167,270.4966,3.9713e-05,3.44e-06,0.0,0 STARLINK-3271,1 50167U 21125M   24109.19786156  .00000344  00000-0  39713-4 0  9997,2 50167  53.2149 118.8664 0001231  89.6167 270.4966 15.08831729131736,6917.906,95.438,540.622,538.919,0.0
50167.0,STARLINK-3271,PAYLOAD,2024-04-18 07:55:41,15.08829396,0.0001231,53.2153,118.272,89.9703,270.143,1.5362e-05,-4.3e-07,0.0,0 STARLINK-3271,1 50167U 21125M   24109.33034425 -.00000043  00000-0  15362-4 0  9999,2 50167  53.2153 118.2720 0001231  89.9703 270.1430 15.08829396132233,6917.913,95.438,540.629,538.926,0.0
50167.0,STARLINK-3271,PAYLOAD,2024-04-19 09:21:51,15.08839657,0.0001419,53.2165,113.5144,94.312,265.8034,7.6543e-05,9.3e-06,0.0,0 STARLINK-3271,1 50167U 21125M   24110.39018055  .00000930  00000-0  76543-4 0  9990,2 50167  53.2165 113.5144 0001419  94.3120 265.8034 15.08839657131911,6917.881,95.438,540.728,538.765,0.0
50167.0,STARLINK-3271,PAYLOAD,2024-04-20 09:12:38,15.0884306,0.0001621,53.2177,109.0554,82.0552,278.0624,0.00022597,3.31e-05,0.0,0 STARLINK-3271,1 50167U 21125M   24111.38377876  .00003310  00000-0  22597-3 0  9993,2 50167  53.2177 109.0554 0001621  82.0552 278.0624 15.08843060132541,6917.871,95.437,540.857,538.615,0.0
50167.0,STARLINK-3271,PAYLOAD,2024-04-21 04:17:16,15.08836644,0.000154,53.217,105.483,104.2828,255.8335,-1.404e-05,-5.11e-06,0.0,0 STARLINK-3271,1 50167U 21125M   24112.17866552 -.00000511  00000-0 -14040-4 0  9992,2 50167  53.2170 105.4830 0001540 104.2828 255.8335 15.08836644132186,6917.891,95.438,540.821,538.69,0.0
50167.0,STARLINK-3271,PAYLOAD,2024-04-21 09:03:26,15.08830477,0.0001699,53.2187,104.5943,83.2057,276.9129,-4.2699e-05,-9.67e-06,0.0,0 STARLINK-3271,1 50167U 21125M   24112.37739581 -.00000967  00000-0 -42699-4 0  9991,2 50167  53.2187 104.5943 0001699  83.2057 276.9129 15.08830477132693,6917.909,95.438,540.95,538.599,0.0
50167.0,STARLINK-3271,PAYLOAD,2024-04-22 04:08:03,15.08847748,0.0001479,53.2176,101.0331,70.7576,289.3576,5.9102e-05,6.53e-06,0.0,0 STARLINK-3271,1 50167U 21125M   24113.17226389  .00000653  00000-0  59102-4 0  9994,2 50167  53.2176 101.0331 0001479  70.7576 289.3576 15.08847748132331,6917.857,95.437,540.745,538.699,0.0
50167.0,STARLINK-3271,PAYLOAD,2024-04-22 08:54:12,15.08849786,0.0001566,53.2179,100.1409,76.6025,283.5142,0.00018135,2.6e-05,0.0,0 STARLINK-3271,1 50167U 21125M   24113.37098358  .00002600  00000-0  18135-3 0  9993,2 50167  53.2179 100.1409 0001566  76.6025 283.5142 15.08849786132846,6917.85,95.437,540.799,538.632,0.0
50167.0,STARLINK-3271,PAYLOAD,2024-04-23 03:58:50,15.08837586,0.0001529,53.2158,96.5588,131.4768,228.6355,0.00022436,3.284e-05,0.0,0 STARLINK-3271,1 50167U 21125M   24114.16586495  .00003284  00000-0  22436-3 0  9993,2 50167  53.2158  96.5588 0001529 131.4768 228.6355 15.08837586132483,6917.888,95.438,540.811,538.695,0.0
50167.0,STARLINK-3271,PAYLOAD,2024-04-23 05:34:14,15.08834904,0.0001134,53.2153,96.2616,115.0633,245.0477,0.000173,2.466e-05,0.0,0 STARLINK-3271,1 50167U 21125M   24114.23210717  .00002466  00000-0  17300-3 0  9997,2 50167  53.2153  96.2616 0001134 115.0633 245.0477 15.08834904132971,6917.896,95.438,540.545,538.976,0.0
50167.0,STARLINK-3271,PAYLOAD,2024-04-24 05:25:00,15.08845172,0.0001293,53.2181,91.8097,96.7584,263.3556,-1.419e-05,-5.14e-06,0.0,0 STARLINK-3271,1 50167U 21125M   24115.22570581 -.00000514  00000-0 -14190-4 0  9994,2 50167  53.2181  91.8097 0001293  96.7584 263.3556 15.08845172132646,6917.865,95.437,540.624,538.835,0.0
50167.0,STARLINK-3271,PAYLOAD,2024-04-24 22:54:15,15.08832727,0.0001434,53.2184,88.5392,113.8481,246.2661,0.00011692,1.573e-05,0.0,0 STARLINK-3271,1 50167U 21125M   24115.95434945  .00001573  00000-0  11692-3 0  9994,2 50167  53.2184  88.5392 0001434 113.8481 246.2661 15.08832727133239,6917.903,95.438,540.76,538.776,0.0
